OBJECT_NAME,OBJECT_ID,EPOCH,MEAN_MOTION,ECCENTRICITY,INCLINATION,RA_OF_ASC_NODE,ARG_OF_PERICENTER,MEAN_ANOMALY,EPHEMERIS_TYPE,CLASSIFICATION_TYPE,NORAD_CAT_ID,ELEMENT_SET_NO,REV_AT_EPOCH,BSTAR,MEAN_MOTION_DOT,MEAN_MOTION_DDOT
STARLINK-4048,2022-062K,2024-03-31T19:57:14.277600,15.08826917,.0001891,53.2184,331.8195,105.2730,254.8471,0,U,52839,999,9941,-.33704E-3,-.5646E-4,0
STARLINK-4049,2022-062L,2024-03-31T20:03:55.860480,15.08847951,.00014,53.2183,331.8101,91.1844,268.9309,0,U,52840,999,9941,.34388E-3,.519E-4,0
STARLINK-4065,2022-062M,2024-03-31T19:41:21.193152,15.08843858,.0001171,53.2173,331.8701,81.7286,278.3839,0,U,52841,999,9941,.30248E-3,.453E-4,0
STARLINK-4046,2022-062N,2024-03-31T20:02:32.158752,15.08848148,.0001232,53.2184,331.7301,113.5603,246.5519,0,U,52842,999,9941,.71174E-3,.1106E-3,0
STARLINK-4188,2022-062P,2024-03-30T22:50:44.540160,15.08848056,.0001255,53.2177,335.7704,97.5648,262.5487,0,U,52843,999,9879,.16275E-3,.2304E-4,0
STARLINK-4208,2022-062Q,2024-03-31T02:22:42.582144,15.08842694,.0001308,53.2177,335.1059,95.0136,265.1006,0,U,52844,999,9881,.14142E-3,.1964E-4,0
STARLINK-4168,2022-062R,2024-03-31T19:36:04.563936,15.08828094,.0001233,53.2181,331.9535,91.3581,268.7553,0,U,52845,999,9941,.13804E-3,.1909E-4,0
STARLINK-4212,2022-062S,2024-03-31T19:37:25.708224,15.08852280,.0001256,53.2190,331.8900,110.0495,250.0632,0,U,52846,999,9941,.60152E-3,.9301E-4,0
STARLINK-4206,2022-062T,2024-03-31T20:55:32.434752,15.08840006,.0001254,53.2198,331.6376,93.8038,266.3097,0,U,52847,999,9942,.94009E-4,.1209E-4,0
STARLINK-4202,2022-062U,2024-03-31T08:38:57.327936,15.08854630,.000139,53.2176,333.9354,87.7881,272.3270,0,U,52848,999,9885,.13723E-2,.21628E-3,0
STARLINK-4197,2022-062V,2024-03-31T08:03:10.909152,15.08841427,.0001329,53.2181,324.0463,86.3056,273.8088,0,U,52849,999,9898,.49486E-4,.5E-5,0
STARLINK-4187,2022-062W,2024-03-31T20:14:35.484000,15.08841236,.0001456,53.2189,332.1261,96.9921,263.1236,0,U,52850,999,9941,.85963E-4,.108E-4,0
STARLINK-3809,2022-062X,2024-03-31T20:40:58.244736,15.08845587,.0001439,53.2174,321.6828,92.3025,267.8132,0,U,52851,999,9955,.96934E-4,.1255E-4,0
STARLINK-4184,2022-062Y,2024-03-31T20:51:33.878304,15.08844005,.0000989,53.2163,321.6493,99.7708,260.3396,0,U,52852,999,9955,.1633E-3,.2312E-4,0
STARLINK-4189,2022-062Z,2024-03-31T22:01:49.324800,15.08852161,.0001431,53.2172,321.4013,90.0362,270.0794,0,U,52853,999,9956,.26345E-3,.3909E-4,0
STARLINK-4204,2022-062AA,2024-03-31T20:35:40.465536,15.08837917,.0001042,53.2167,321.7038,78.5115,281.5994,0,U,52854,999,9955,.53318E-4,.561E-5,0
STARLINK-4209,2022-062AB,2024-03-31T21:55:10.800480,15.08825296,.0001395,53.2177,321.4515,82.0252,278.0898,0,U,52855,999,9956,.24261E-4,.98E-6,0
STARLINK-4201,2022-062AC,2024-03-30T22:16:21.535392,15.08840754,.0001422,53.2187,325.9224,96.4061,263.7093,0,U,52856,999,9892,.1508E-3,.2113E-4,0
STARLINK-4199,2022-062AD,2024-03-31T09:01:28.249824,15.08848358,.0001277,53.2177,323.8641,97.0545,263.0593,0,U,52857,999,9899,-.73162E-5,-.404E-5,0
STARLINK-4198,2022-062AE,2024-03-31T22:00:27.040032,15.08848824,.0001359,53.2186,321.4628,96.4593,263.6553,0,U,52858,999,9956,.14988E-3,.2099E-4,0
STARLINK-4196,2022-062AF,2024-03-31T21:39:15.858432,15.08839226,.0001135,53.2182,321.5013,90.3829,269.7293,0,U,52859,999,9956,.11809E-3,.1592E-4,0
STARLINK-4191,2022-062AG,2024-03-31T21:49:51.196512,15.08856792,.000121,53.2182,321.4660,93.2040,266.9090,0,U,52860,999,9956,.45278E-3,.6929E-4,0
STARLINK-4112,2022-062AH,2024-03-31T14:52:36.322176,15.08830721,.0000683,53.2181,322.7806,82.1228,277.9841,0,U,52861,999,9903,.27517E-3,.4093E-4,0
STARLINK-4010,2022-062AJ,2024-03-31T21:33:58.158720,15.08833784,.0001191,53.2170,321.5189,81.7117,278.4010,0,U,52862,999,9956,.64024E-4,.731E-5,0
STARLINK-4270,2022-062AK,2024-03-31T21:23:21.935040,15.08837083,.0000935,53.2178,321.5543,95.8959,264.2139,0,U,52863,999,9956,.14822E-3,.2072E-4,0
STARLINK-4267,2022-062AL,2024-03-31T21:28:34.870656,15.08939693,.0001168,53.2178,321.5325,42.4015,317.7068,0,U,52864,999,9956,-.16832E-2,-.27049E-3,0
STARLINK-4274,2022-062AM,2024-03-31T08:24:22.506336,15.08847956,.0001292,53.2187,323.9805,98.1148,261.9991,0,U,52865,999,9899,.14398E-3,.2005E-4,0
STARLINK-4272,2022-062AN,2024-03-31T19:42:40.600800,15.08847352,.000138,53.2185,321.8677,90.7049,269.4101,0,U,52866,999,9955,.2505E-3,.3702E-4,0
STARLINK-4126,2022-062AP,2024-03-31T20:56:52.098144,15.08839463,.0001414,53.2184,321.6356,100.2791,259.8361,0,U,52867,999,9956,.98778E-4,.1284E-4,0
STARLINK-4261,2022-062AQ,2024-03-31T19:37:23.215584,15.08854403,.0002026,53.2177,321.9134,81.1255,278.9966,0,U,52868,999,9955,.96161E-3,.15055E-3,0
