STARLINK-4048           
1 52839U 22062K   24091.83141525 -.00005646  00000+0 -33704-3 0  9996
2 52839  53.2184 331.8195 0001891 105.2730 254.8471 15.08826917 99410
STARLINK-4049           
1 52840U 22062L   24091.83606320  .00005190  00000+0  34388-3 0  9998
2 52840  53.2183 331.8101 0001400  91.1844 268.9309 15.08847951 99410
STARLINK-4065           
1 52841U 22062M   24091.82038418  .00004530  00000+0  30248-3 0  9993
2 52841  53.2173 331.8701 0001171  81.7286 278.3839 15.08843858 99411
STARLINK-4046           
1 52842U 22062N   24091.83509443  .00011060  00000+0  71174-3 0  9995
2 52842  53.2184 331.7301 0001232 113.5603 246.5519 15.08848148 99413
STARLINK-4188           
1 52843U 22062P   24090.95190440  .00002304  00000+0  16275-3 0  9993
2 52843  53.2177 335.7704 0001255  97.5648 262.5487 15.08848056 98792
STARLINK-4208           
1 52844U 22062Q   24091.09910396  .00001964  00000+0  14142-3 0  9992
2 52844  53.2177 335.1059 0001308  95.0136 265.1006 15.08842694 98815
STARLINK-4168           
1 52845U 22062R   24091.81671949  .00001909  00000+0  13804-3 0  9994
2 52845  53.2181 331.9535 0001233  91.3581 268.7553 15.08828094 99415
STARLINK-4212           
1 52846U 22062S   24091.81765866  .00009301  00000+0  60152-3 0  9999
2 52846  53.2190 331.8900 0001256 110.0495 250.0632 15.08852280 99415
STARLINK-4206           
1 52847U 22062T   24091.87190318  .00001209  00000+0  94009-4 0  9998
2 52847  53.2198 331.6376 0001254  93.8038 266.3097 15.08840006 99427
STARLINK-4202           
1 52848U 22062U   24091.36038574  .00021628  00000+0  13723-2 0  9997
2 52848  53.2176 333.9354 0001390  87.7881 272.3270 15.08854630 98858
STARLINK-4197           
1 52849U 22062V   24091.33554293  .00000500  00000+0  49486-4 0  9999
2 52849  53.2181 324.0463 0001329  86.3056 273.8088 15.08841427 98985
STARLINK-4187           
1 52850U 22062W   24091.84346625  .00001080  00000+0  85963-4 0  9999
2 52850  53.2189 332.1261 0001456  96.9921 263.1236 15.08841236 99414
STARLINK-3809           
1 52851U 22062X   24091.86178524  .00001255  00000+0  96934-4 0  9997
2 52851  53.2174 321.6828 0001439  92.3025 267.8132 15.08845587 99551
STARLINK-4184           
1 52852U 22062Y   24091.86914211  .00002312  00000+0  16330-3 0  9995
2 52852  53.2163 321.6493 0000989  99.7708 260.3396 15.08844005 99550
STARLINK-4189           
1 52853U 22062Z   24091.91793200  .00003909  00000+0  26345-3 0  9995
2 52853  53.2172 321.4013 0001431  90.0362 270.0794 15.08852161 99563
STARLINK-4204           
1 52854U 22062AA  24091.85810724  .00000561  00000+0  53318-4 0  9992
2 52854  53.2167 321.7038 0001042  78.5115 281.5994 15.08837917 99553
STARLINK-4209           
1 52855U 22062AB  24091.91331945  .00000098  00000+0  24261-4 0  9993
2 52855  53.2177 321.4515 0001395  82.0252 278.0898 15.08825296 99567
STARLINK-4201           
1 52856U 22062AC  24090.92802703  .00002113  00000+0  15080-3 0  9997
2 52856  53.2187 325.9224 0001422  96.4061 263.7093 15.08840754 98926
STARLINK-4199           
1 52857U 22062AD  24091.37602141 -.00000404  00000+0 -73162-5 0  9992
2 52857  53.2177 323.8641 0001277  97.0545 263.0593 15.08848358 98991
STARLINK-4198           
1 52858U 22062AE  24091.91697963  .00002099  00000+0  14988-3 0  9998
2 52858  53.2186 321.4628 0001359  96.4593 263.6553 15.08848824 99562
STARLINK-4196           
1 52859U 22062AF  24091.90226688  .00001592  00000+0  11809-3 0  9996
2 52859  53.2182 321.5013 0001135  90.3829 269.7293 15.08839226 99569
STARLINK-4191           
1 52860U 22062AG  24091.90962033  .00006929  00000+0  45278-3 0  9995
2 52860  53.2182 321.4660 0001210  93.2040 266.9090 15.08856792 99560
STARLINK-4112           
1 52861U 22062AH  24091.61986484  .00004093  00000+0  27517-3 0  9996
2 52861  53.2181 322.7806 0000683  82.1228 277.9841 15.08830721 99036
STARLINK-4010           
1 52862U 22062AJ  24091.89858980  .00000731  00000+0  64024-4 0  9996
2 52862  53.2170 321.5189 0001191  81.7117 278.4010 15.08833784 99567
STARLINK-4270           
1 52863U 22062AK  24091.89122610  .00002072  00000+0  14822-3 0  9991
2 52863  53.2178 321.5543 0000935  95.8959 264.2139 15.08837083 99566
STARLINK-4267           
1 52864U 22062AL  24091.89484804 -.00027049  00000+0 -16832-2 0  9993
2 52864  53.2178 321.5325 0001168  42.4015 317.7068 15.08939693 99560
STARLINK-4274           
1 52865U 22062AM  24091.35026049  .00002005  00000+0  14398-3 0  9997
2 52865  53.2187 323.9805 0001292  98.1148 261.9991 15.08847956 98994
STARLINK-4272           
1 52866U 22062AN  24091.82130325  .00003702  00000+0  25050-3 0  9995
2 52866  53.2185 321.8677 0001380  90.7049 269.4101 15.08847352 99552
STARLINK-4126           
1 52867U 22062AP  24091.87282521  .00001284  00000+0  98778-4 0  9998
2 52867  53.2184 321.6356 0001414 100.2791 259.8361 15.08839463 99569
STARLINK-4261           
1 52868U 22062AQ  24091.81762981  .00015055  00000+0  96161-3 0  9990
2 52868  53.2177 321.9134 0002026  81.1255 278.9966 15.08854403 99554
